{
    "links": {
        "self": "http://www.neowsapp.com/rest/v1/neo/3738545?api_key=iIulBulltgU6a56xZRHN4H3l9WmuAYTsLGpBGhQ2"
    },
    "id": "3738545",
    "neo_reference_id": "3738545",
    "name": "(2015 YH)",
    "designation": "2015 YH",
    "nasa_jpl_url": "http://ssd.jpl.nasa.gov/sbdb.cgi?sstr=3738545",
    "absolute_magnitude_h": 27.9,
    "estimated_diameter": {
        "kilometers": {
            "estimated_diameter_min": 0.0069912523,
            "estimated_diameter_max": 0.0156329154
        },
        "meters": {
            "estimated_diameter_min": 6.9912523225,
            "estimated_diameter_max": 15.6329154409
        },
        "miles": {
            "estimated_diameter_min": 0.0043441614,
            "estimated_diameter_max": 0.0097138403
        },
        "feet": {
            "estimated_diameter_min": 22.9371802696,
            "estimated_diameter_max": 51.289094295
        }
    },
    "is_potentially_hazardous_asteroid": false,
    "close_approach_data": [
        {
            "close_approach_date": "1986-08-20",
            "close_approach_date_full": "1986-Aug-20 16:33",
            "epoch_date_close_approach": 524939580000,
            "relative_velocity": {
                "kilometers_per_second": "6.2718398002",
                "kilometers_per_hour": "22578.623280746",
                "miles_per_hour": "14029.4784490835"
            },
            "miss_distance": {
                "astronomical": "0.079102069",
                "lunar": "30.770704841",
                "kilometers": "11833501.03499303",
                "miles": "7352996.580162614"
            },
            "orbiting_body": "Earth"
        },
        {
            "close_approach_date": "2015-07-08",
            "close_approach_date_full": "2015-Jul-08 05:28",
            "epoch_date_close_approach": 1436333280000,
            "relative_velocity": {
                "kilometers_per_second": "4.9976624661",
                "kilometers_per_hour": "17991.5848778392",
                "miles_per_hour": "11179.271170344"
            },
            "miss_distance": {
                "astronomical": "0.3108730254",
                "lunar": "120.9296068806",
                "kilometers": "46505942.440295898",
                "miles": "28897452.6397154724"
            },
            "orbiting_body": "Earth"
        },
        {
            "close_approach_date": "2015-12-10",
            "close_approach_date_full": "2015-Dec-10 22:39",
            "epoch_date_close_approach": 1449787140000,
            "relative_velocity": {
                "kilometers_per_second": "6.9115272473",
                "kilometers_per_hour": "24881.4980903121",
                "miles_per_hour": "15460.3952995053"
            },
            "miss_distance": {
                "astronomical": "0.01293374",
                "lunar": "5.03122486",
                "kilometers": "1934859.9551338",
                "miles": "1202266.22629444"
            },
            "orbiting_body": "Earth"
        }
    ],
    "orbital_data": {
        "orbit_id": "3",
        "orbit_determination_date": "2017-04-06 08:29:45",
        "first_observation_date": "2015-12-16",
        "last_observation_date": "2015-12-18",
        "data_arc_in_days": 2,
        "observations_used": 18,
        "orbit_uncertainty": "8",
        "minimum_orbit_intersection": ".0101176",
        "jupiter_tisserand_invariant": "5.115",
        "epoch_osculation": "2457373.5",
        "eccentricity": ".2629635926313657",
        "semi_major_axis": "1.24643845619383",
        "inclination": "4.97399339590546",
        "ascending_node_longitude": "83.39007963954877",
        "orbital_period": "508.2819489591419",
        "perihelion_distance": ".9186705217592073",
        "perihelion_argument": "304.9231942083449",
        "aphelion_distance": "1.574206390628453",
        "perihelion_time": "2457325.948608703708",
        "mean_anomaly": "33.67914383290677",
        "mean_motion": ".7082683159164059",
        "equinox": "J2000",
        "orbit_class": {
            "orbit_class_type": "APO",
            "orbit_class_description": "Near-Earth asteroid orbits which cross the Earth’s orbit similar to that of 1862 Apollo",
            "orbit_class_range": "a (semi-major axis) > 1.0 AU; q (perihelion) < 1.017 AU"
        }
    },
    "is_sentry_object": false
}